{
  "type": "FeatureCollection",
  "features": [
    {
      "type": "Feature",
      "properties": {
        "norad_id": 34350,
        "name": "IRIDIUM 33 DEB",
        "group": "iridium-33-debris",
        "lat": -24.449929813107115,
        "lon": -171.05566968355114,
        "alt_km": 734.0998990885009,
        "timestamp": "2025-12-02T10:50:47.660005+00:00",
        "meta_object_name": "IRIDIUM 33 DEB",
        "meta_object_id": "1997-051ES",
        "meta_epoch": "2025-12-02T01:52:09.567264",
        "meta_mean_motion": 14.45347269,
        "meta_eccentricity": 0.0021718,
        "meta_inclination": 86.3283,
        "meta_ra_of_asc_node": 7.4335,
        "meta_arg_of_pericenter": 168.9655,
        "meta_mean_anomaly": 250.2306,
        "meta_ephemeris_type": 0,
        "meta_classification_type": "U",
        "meta_norad_cat_id": 34350,
        "meta_element_set_no": 999,
        "meta_rev_at_epoch": 88139,
        "meta_bstar": 0.00036673,
        "meta_mean_motion_dot": 1.312e-05,
        "meta_mean_motion_ddot": 0,
        "tle_line1": "1 34350U 97051ES  25336.07788851  .00001312  00000+0  36673-3 0  9994",
        "tle_line2": "2 34350  86.3283   7.4335 0021718 168.9655 250.2306 14.45347269881390"
      },
      "geometry": {
        "type": "Point",
        "coordinates": [
          -171.05566968355114,
          -24.449929813107115
        ]
      }
    },
    {
      "type": "Feature",
      "properties": {
        "norad_id": 34366,
        "name": "IRIDIUM 33 DEB",
        "group": "iridium-33-debris",
        "lat": -33.80617376848275,
        "lon": -123.77800722378973,
        "alt_km": 707.6736586901034,
        "timestamp": "2025-12-02T10:50:47.660016+00:00",
        "meta_object_name": "IRIDIUM 33 DEB",
        "meta_object_id": "1997-051FJ",
        "meta_epoch": "2025-12-01T17:56:27.538080",
        "meta_mean_motion": 14.53886332,
        "meta_eccentricity": 0.0021585,
        "meta_inclination": 86.3708,
        "meta_ra_of_asc_node": 54.0924,
        "meta_arg_of_pericenter": 175.1506,
        "meta_mean_anomaly": 314.0066,
        "meta_ephemeris_type": 0,
        "meta_classification_type": "U",
        "meta_norad_cat_id": 34366,
        "meta_element_set_no": 999,
        "meta_rev_at_epoch": 88022,
        "meta_bstar": 0.0012466,
        "meta_mean_motion_dot": 5.277e-05,
        "meta_mean_motion_ddot": 0,
        "tle_line1": "1 34366U 97051FJ  25335.74754095  .00005277  00000+0  12466-2 0  9994",
        "tle_line2": "2 34366  86.3708  54.0924 0021585 175.1506 314.0066 14.53886332880229"
      },
      "geometry": {
        "type": "Point",
        "coordinates": [
          -123.77800722378973,
          -33.80617376848275
        ]
      }
    },
    {
      "type": "Feature",
      "properties": {
        "norad_id": 34375,
        "name": "IRIDIUM 33 DEB",
        "group": "iridium-33-debris",
        "lat": 19.42780395360249,
        "lon": -171.89709561779384,
        "alt_km": 888.3161268145086,
        "timestamp": "2025-12-02T10:50:47.660026+00:00",
        "meta_object_name": "IRIDIUM 33 DEB",
        "meta_object_id": "1997-051FT",
        "meta_epoch": "2025-12-02T01:18:17.719200",
        "meta_mean_motion": 14.17961976,
        "meta_eccentricity": 0.0102366,
        "meta_inclination": 86.4333,
        "meta_ra_of_asc_node": 187.0026,
        "meta_arg_of_pericenter": 160.3927,
        "meta_mean_anomaly": 351.7564,
        "meta_ephemeris_type": 0,
        "meta_classification_type": "U",
        "meta_norad_cat_id": 34375,
        "meta_element_set_no": 999,
        "meta_rev_at_epoch": 86560,
        "meta_bstar": 0.00046831,
        "meta_mean_motion_dot": 1.028e-05,
        "meta_mean_motion_ddot": 0,
        "tle_line1": "1 34375U 97051FT  25336.05437175  .00001028  00000+0  46831-3 0  9990",
        "tle_line2": "2 34375  86.4333 187.0026 0102366 160.3927 351.7564 14.17961976865608"
      },
      "geometry": {
        "type": "Point",
        "coordinates": [
          -171.89709561779384,
          19.42780395360249
        ]
      }
    },
    {
      "type": "Feature",
      "properties": {
        "norad_id": 34376,
        "name": "IRIDIUM 33 DEB",
        "group": "iridium-33-debris",
        "lat": -7.959474106553056,
        "lon": -168.31723362477177,
        "alt_km": 671.957717095117,
        "timestamp": "2025-12-02T10:50:47.660037+00:00",
        "meta_object_name": "IRIDIUM 33 DEB",
        "meta_object_id": "1997-051FU",
        "meta_epoch": "2025-12-02T03:25:12.488160",
        "meta_mean_motion": 14.62320389,
        "meta_eccentricity": 0.0025952,
        "meta_inclination": 86.2999,
        "meta_ra_of_asc_node": 11.3033,
        "meta_arg_of_pericenter": 203.051,
        "meta_mean_anomaly": 156.9539,
        "meta_ephemeris_type": 0,
        "meta_classification_type": "U",
        "meta_norad_cat_id": 34376,
        "meta_element_set_no": 999,
        "meta_rev_at_epoch": 87852,
        "meta_bstar": 0.0016838,
        "meta_mean_motion_dot": 8.565e-05,
        "meta_mean_motion_ddot": 0,
        "tle_line1": "1 34376U 97051FU  25336.14250565  .00008565  00000+0  16838-2 0  9993",
        "tle_line2": "2 34376  86.2999  11.3033 0025952 203.0510 156.9539 14.62320389878529"
      },
      "geometry": {
        "type": "Point",
        "coordinates": [
          -168.31723362477177,
          -7.959474106553056
        ]
      }
    },
    {
      "type": "Feature",
      "properties": {
        "norad_id": 34486,
        "name": "IRIDIUM 33 DEB",
        "group": "iridium-33-debris",
        "lat": -83.82429684150546,
        "lon": -127.59689747217082,
        "alt_km": 593.8991837699095,
        "timestamp": "2025-12-02T10:50:47.660047+00:00",
        "meta_object_name": "IRIDIUM 33 DEB",
        "meta_object_id": "1997-051GB",
        "meta_epoch": "2025-12-02T03:28:52.307904",
        "meta_mean_motion": 14.95027296,
        "meta_eccentricity": 0.0012683,
        "meta_inclination": 86.3954,
        "meta_ra_of_asc_node": 16.9124,
        "meta_arg_of_pericenter": 147.5491,
        "meta_mean_anomaly": 266.6737,
        "meta_ephemeris_type": 0,
        "meta_classification_type": "U",
        "meta_norad_cat_id": 34486,
        "meta_element_set_no": 999,
        "meta_rev_at_epoch": 88828,
        "meta_bstar": 0.0024553,
        "meta_mean_motion_dot": 0.00026994,
        "meta_mean_motion_ddot": 0,
        "tle_line1": "1 34486U 97051GB  25336.14504986  .00026994  00000+0  24553-2 0  9993",
        "tle_line2": "2 34486  86.3954  16.9124 0012683 147.5491 266.6737 14.95027296888282"
      },
      "geometry": {
        "type": "Point",
        "coordinates": [
          -127.59689747217082,
          -83.82429684150546
        ]
      }
    },
    {
      "type": "Feature",
      "properties": {
        "norad_id": 34487,
        "name": "IRIDIUM 33 DEB",
        "group": "iridium-33-debris",
        "lat": 51.07230031294143,
        "lon": 21.345991682852304,
        "alt_km": 750.9097687170615,
        "timestamp": "2025-12-02T10:50:47.660058+00:00",
        "meta_object_name": "IRIDIUM 33 DEB",
        "meta_object_id": "1997-051GC",
        "meta_epoch": "2025-12-01T15:14:00.920832",
        "meta_mean_motion": 14.43192153,
        "meta_eccentricity": 0.00317068,
        "meta_inclination": 86.3445,
        "meta_ra_of_asc_node": 17.1579,
        "meta_arg_of_pericenter": 163.7221,
        "meta_mean_anomaly": 324.8136,
        "meta_ephemeris_type": 0,
        "meta_classification_type": "U",
        "meta_norad_cat_id": 34487,
        "meta_element_set_no": 999,
        "meta_rev_at_epoch": 88088,
        "meta_bstar": 0.0002149908,
        "meta_mean_motion_dot": 7.47e-06,
        "meta_mean_motion_ddot": 0,
        "tle_line1": "1 34487U 97051GC  25335.63473288  .00000747  00000+0  21499-3 0  9992",
        "tle_line2": "2 34487  86.3445  17.1579 0031706 163.7221 324.8136 14.43192153880889"
      },
      "geometry": {
        "type": "Point",
        "coordinates": [
          21.345991682852304,
          51.07230031294143
        ]
      }
    },
    {
      "type": "Feature",
      "properties": {
        "norad_id": 34488,
        "name": "IRIDIUM 33 DEB",
        "group": "iridium-33-debris",
        "lat": 40.054264777345445,
        "lon": 127.79748424467164,
        "alt_km": 482.5561220175032,
        "timestamp": "2025-12-02T10:50:47.660069+00:00",
        "meta_object_name": "IRIDIUM 33 DEB",
        "meta_object_id": "1997-051GD",
        "meta_epoch": "2025-12-01T09:03:02.520864",
        "meta_mean_motion": 15.25513419,
        "meta_eccentricity": 0.00159486,
        "meta_inclination": 86.3247,
        "meta_ra_of_asc_node": 311.4245,
        "meta_arg_of_pericenter": 69.089,
        "meta_mean_anomaly": 291.2062,
        "meta_ephemeris_type": 0,
        "meta_classification_type": "U",
        "meta_norad_cat_id": 34488,
        "meta_element_set_no": 999,
        "meta_rev_at_epoch": 89066,
        "meta_bstar": 0.005113685,
        "meta_mean_motion_dot": 0.00132074,
        "meta_mean_motion_ddot": 0,
        "tle_line1": "1 34488U 97051GD  25335.37711251  .00132074  00000+0  51137-2 0  9999",
        "tle_line2": "2 34488  86.3247 311.4245 0015948  69.0890 291.2062 15.25513419890665"
      },
      "geometry": {
        "type": "Point",
        "coordinates": [
          127.79748424467164,
          40.054264777345445
        ]
      }
    }
  ]
}